[{"OBJECT_NAME":"MESON-1","OBJECT_ID":"2024-043AK","EPOCH":"2026-03-09T21:36:16.481664","MEAN_MOTION":15.29893494,"ECCENTRICITY":0.00095452,"INCLINATION":97.5469,"RA_OF_ASC_NODE":205.2839,"ARG_OF_PERICENTER":227.1432,"MEAN_ANOMALY":132.9007,"EPHEMERIS_TYPE":0,"CLASSIFICATION_TYPE":"U","NORAD_CAT_ID":59131,"ELEMENT_SET_NO":999,"REV_AT_EPOCH":11189,"BSTAR":0.0002974823,"MEAN_MOTION_DOT":8.544e-5,"MEAN_MOTION_DDOT":0},{"OBJECT_NAME":"STARLINK-31635","OBJECT_ID":"2024-073A","EPOCH":"2026-03-09T01:25:51.771072","MEAN_MOTION":15.27589186,"ECCENTRICITY":0.00013593,"INCLINATION":43.0012,"RA_OF_ASC_NODE":321.2045,"ARG_OF_PERICENTER":281.5119,"MEAN_ANOMALY":78.558,"EPHEMERIS_TYPE":0,"CLASSIFICATION_TYPE":"U","NORAD_CAT_ID":59511,"ELEMENT_SET_NO":999,"REV_AT_EPOCH":10608,"BSTAR":-0.00021782465,"MEAN_MOTION_DOT":-6.253e-5,"MEAN_MOTION_DDOT":0}]
